GLOBALSTAR M075         
1 37192U 10054E   25358.21427079 -.00000088  00000+0  85706-4 0  9993
2 37192  52.0022 322.9423 0000480 109.7567 352.3949 12.62261317699849
GLOBALSTAR M073         
1 37193U 10054F   26005.46769561 -.00000100  00000+0  21306-4 0  9997
2 37193  52.0032 199.6138 0001209  76.3039 292.2342 12.62268837703384
GLOBALSTAR M083         
1 37739U 11033A   26005.40712340 -.00000117  00000+0 -72725-4 0  9998
2 37739  51.9842 148.2476 0000919  89.6412 305.4083 12.62266267672391
GLOBALSTAR M088         
1 37740U 11033B   26005.37612470 -.00000079  00000+0  13642-3 0  9997
2 37740  52.0235  54.3759 0000449 135.3686 238.2350 12.62271360667936
GLOBALSTAR M091         
1 37741U 11033C   26005.50220998 -.00000095  00000+0  46410-4 0  9991
2 37741  52.0020  17.1992 0000107  79.2983  86.6497 12.62268426668737
GLOBALSTAR M085         
1 37742U 11033D   26005.24545475 -.00000089  00000+0  80936-4 0  9997
2 37742  52.0150 329.1305 0000427  21.7921 117.4518 12.62267677669213
GLOBALSTAR M081         
1 37743U 11033E   25351.59018587 -.00000087  00000+0  92331-4 0  9998
2 37743  51.9980  28.5496 0000222  94.7932  71.3857 12.62270971667009
GLOBALSTAR M089         
1 37744U 11033F   26005.23781917 -.00000060  00000+0  24595-3 0  9998
2 37744  51.9941 285.9657 0000920  75.5334  89.8591 12.62263294670208
